CCSDS_OMM_VERS = 2.0
CREATION_DATE  = 
ORIGINATOR     = 

OBJECT_NAME    = STARLINK-36319
OBJECT_ID      = 2026-038K
CENTER_NAME    = EARTH
REF_FRAME      = TEME
TIME_SYSTEM    = UTC
MEAN_ELEMENT_THEORY = SGP/SGP4

EPOCH          = 2026-03-21T12:00:00.999648
MEAN_MOTION    = 15.49320739
ECCENTRICITY   = .00009312
INCLINATION    = 97.2852
RA_OF_ASC_NODE = 91.3126
ARG_OF_PERICENTER = 107.8800
MEAN_ANOMALY   = 152.0281

EPHEMERIS_TYPE = 0
CLASSIFICATION_TYPE = U
NORAD_CAT_ID   = 67970
ELEMENT_SET_NO = 999
REV_AT_EPOCH   = 507
BSTAR          = -.5944663E-2
MEAN_MOTION_DOT = -.312351E-2
MEAN_MOTION_DDOT = 0

CCSDS_OMM_VERS = 2.0
CREATION_DATE  = 
ORIGINATOR     = 

OBJECT_NAME    = STARLINK-36710
OBJECT_ID      = 2026-038L
CENTER_NAME    = EARTH
REF_FRAME      = TEME
TIME_SYSTEM    = UTC
MEAN_ELEMENT_THEORY = SGP/SGP4

EPOCH          = 2026-03-21T12:00:00.999648
MEAN_MOTION    = 15.56117457
ECCENTRICITY   = .00014906
INCLINATION    = 97.2854
RA_OF_ASC_NODE = 91.3616
ARG_OF_PERICENTER = 74.9089
MEAN_ANOMALY   = 300.3951

EPHEMERIS_TYPE = 0
CLASSIFICATION_TYPE = U
NORAD_CAT_ID   = 67971
ELEMENT_SET_NO = 999
REV_AT_EPOCH   = 510
BSTAR          = -.36992174E-1
MEAN_MOTION_DOT = -.2274386E-1
MEAN_MOTION_DDOT = 0

CCSDS_OMM_VERS = 2.0
CREATION_DATE  = 
ORIGINATOR     = 

OBJECT_NAME    = STARLINK-36894
OBJECT_ID      = 2026-038M
CENTER_NAME    = EARTH
REF_FRAME      = TEME
TIME_SYSTEM    = UTC
MEAN_ELEMENT_THEORY = SGP/SGP4

EPOCH          = 2026-03-21T12:00:00.999648
MEAN_MOTION    = 15.56471230
ECCENTRICITY   = .00013641
INCLINATION    = 97.2851
RA_OF_ASC_NODE = 91.3706
ARG_OF_PERICENTER = 98.7218
MEAN_ANOMALY   = 287.5999

EPHEMERIS_TYPE = 0
CLASSIFICATION_TYPE = U
NORAD_CAT_ID   = 67972
ELEMENT_SET_NO = 999
REV_AT_EPOCH   = 510
BSTAR          = -.35571355E-1
MEAN_MOTION_DOT = -.2222728E-1
MEAN_MOTION_DDOT = 0

CCSDS_OMM_VERS = 2.0
CREATION_DATE  = 
ORIGINATOR     = 

OBJECT_NAME    = STARLINK-36900
OBJECT_ID      = 2026-038N
CENTER_NAME    = EARTH
REF_FRAME      = TEME
TIME_SYSTEM    = UTC
MEAN_ELEMENT_THEORY = SGP/SGP4

EPOCH          = 2026-03-21T12:00:00.999648
MEAN_MOTION    = 15.49394442
ECCENTRICITY   = .00011481
INCLINATION    = 97.2853
RA_OF_ASC_NODE = 91.2451
ARG_OF_PERICENTER = 105.9900
MEAN_ANOMALY   = 351.6675

EPHEMERIS_TYPE = 0
CLASSIFICATION_TYPE = U
NORAD_CAT_ID   = 67973
ELEMENT_SET_NO = 999
REV_AT_EPOCH   = 510
BSTAR          = -.62654549E-2
MEAN_MOTION_DOT = -.329361E-2
MEAN_MOTION_DDOT = 0

CCSDS_OMM_VERS = 2.0
CREATION_DATE  = 
ORIGINATOR     = 

OBJECT_NAME    = STARLINK-36901
OBJECT_ID      = 2026-038P
CENTER_NAME    = EARTH
REF_FRAME      = TEME
TIME_SYSTEM    = UTC
MEAN_ELEMENT_THEORY = SGP/SGP4

EPOCH          = 2026-03-21T12:00:00.999648
MEAN_MOTION    = 15.56586509
ECCENTRICITY   = .00015437
INCLINATION    = 97.2852
RA_OF_ASC_NODE = 91.3695
ARG_OF_PERICENTER = 76.7958
MEAN_ANOMALY   = 316.7593

EPHEMERIS_TYPE = 0
CLASSIFICATION_TYPE = U
NORAD_CAT_ID   = 67974
ELEMENT_SET_NO = 999
REV_AT_EPOCH   = 510
BSTAR          = -.36419018E-1
MEAN_MOTION_DOT = -.2278185E-1
MEAN_MOTION_DDOT = 0

CCSDS_OMM_VERS = 2.0
CREATION_DATE  = 
ORIGINATOR     = 

OBJECT_NAME    = STARLINK-36883
OBJECT_ID      = 2026-038Q
CENTER_NAME    = EARTH
REF_FRAME      = TEME
TIME_SYSTEM    = UTC
MEAN_ELEMENT_THEORY = SGP/SGP4

EPOCH          = 2026-03-21T12:00:00.999648
MEAN_MOTION    = 15.52806500
ECCENTRICITY   = .00017104
INCLINATION    = 97.2855
RA_OF_ASC_NODE = 91.3659
ARG_OF_PERICENTER = 96.7983
MEAN_ANOMALY   = 278.3175

EPHEMERIS_TYPE = 0
CLASSIFICATION_TYPE = U
NORAD_CAT_ID   = 67975
ELEMENT_SET_NO = 999
REV_AT_EPOCH   = 510
BSTAR          = -.40070104E-1
MEAN_MOTION_DOT = -.2192277E-1
MEAN_MOTION_DDOT = 0

CCSDS_OMM_VERS = 2.0
CREATION_DATE  = 
ORIGINATOR     = 

OBJECT_NAME    = STARLINK-36880
OBJECT_ID      = 2026-038R
CENTER_NAME    = EARTH
REF_FRAME      = TEME
TIME_SYSTEM    = UTC
MEAN_ELEMENT_THEORY = SGP/SGP4

EPOCH          = 2026-03-21T12:00:00.999648
MEAN_MOTION    = 15.49203953
ECCENTRICITY   = .00016927
INCLINATION    = 97.2857
RA_OF_ASC_NODE = 91.2204
ARG_OF_PERICENTER = 94.9855
MEAN_ANOMALY   = 302.5049

EPHEMERIS_TYPE = 0
CLASSIFICATION_TYPE = U
NORAD_CAT_ID   = 67976
ELEMENT_SET_NO = 999
REV_AT_EPOCH   = 510
BSTAR          = -.12443487E-2
MEAN_MOTION_DOT = -.6723E-3
MEAN_MOTION_DDOT = 0

CCSDS_OMM_VERS = 2.0
CREATION_DATE  = 
ORIGINATOR     = 

OBJECT_NAME    = STARLINK-36904
OBJECT_ID      = 2026-038S
CENTER_NAME    = EARTH
REF_FRAME      = TEME
TIME_SYSTEM    = UTC
MEAN_ELEMENT_THEORY = SGP/SGP4

EPOCH          = 2026-03-21T12:00:00.999648
MEAN_MOTION    = 15.52647327
ECCENTRICITY   = .00017051
INCLINATION    = 97.2855
RA_OF_ASC_NODE = 91.3586
ARG_OF_PERICENTER = 101.1169
MEAN_ANOMALY   = 263.3665

EPHEMERIS_TYPE = 0
CLASSIFICATION_TYPE = U
NORAD_CAT_ID   = 67977
ELEMENT_SET_NO = 999
REV_AT_EPOCH   = 510
BSTAR          = -.40642225E-1
MEAN_MOTION_DOT = -.2208627E-1
MEAN_MOTION_DDOT = 0

CCSDS_OMM_VERS = 2.0
CREATION_DATE  = 
ORIGINATOR     = 

OBJECT_NAME    = STARLINK-36364
OBJECT_ID      = 2026-038T
CENTER_NAME    = EARTH
REF_FRAME      = TEME
TIME_SYSTEM    = UTC
MEAN_ELEMENT_THEORY = SGP/SGP4

EPOCH          = 2026-03-21T12:00:00.999648
MEAN_MOTION    = 15.58738925
ECCENTRICITY   = .00018629
INCLINATION    = 97.2852
RA_OF_ASC_NODE = 91.4038
ARG_OF_PERICENTER = 87.3352
MEAN_ANOMALY   = 24.8245

EPHEMERIS_TYPE = 0
CLASSIFICATION_TYPE = U
NORAD_CAT_ID   = 67978
ELEMENT_SET_NO = 999
REV_AT_EPOCH   = 510
BSTAR          = -.34056844E-1
MEAN_MOTION_DOT = -.2306766E-1
MEAN_MOTION_DDOT = 0

CCSDS_OMM_VERS = 2.0
CREATION_DATE  = 
ORIGINATOR     = 

OBJECT_NAME    = STARLINK-36359
OBJECT_ID      = 2026-038U
CENTER_NAME    = EARTH
REF_FRAME      = TEME
TIME_SYSTEM    = UTC
MEAN_ELEMENT_THEORY = SGP/SGP4

EPOCH          = 2026-03-21T12:00:00.999648
MEAN_MOTION    = 15.54605342
ECCENTRICITY   = .00013459
INCLINATION    = 97.2850
RA_OF_ASC_NODE = 91.3700
ARG_OF_PERICENTER = 98.2792
MEAN_ANOMALY   = 287.9129

EPHEMERIS_TYPE = 0
CLASSIFICATION_TYPE = U
NORAD_CAT_ID   = 67979
ELEMENT_SET_NO = 999
REV_AT_EPOCH   = 510
BSTAR          = -.3845576E-1
MEAN_MOTION_DOT = -.2240154E-1
MEAN_MOTION_DDOT = 0

CCSDS_OMM_VERS = 2.0
CREATION_DATE  = 
ORIGINATOR     = 

OBJECT_NAME    = STARLINK-36882
OBJECT_ID      = 2026-038V
CENTER_NAME    = EARTH
REF_FRAME      = TEME
TIME_SYSTEM    = UTC
MEAN_ELEMENT_THEORY = SGP/SGP4

EPOCH          = 2026-03-21T12:00:00.999648
MEAN_MOTION    = 15.51923131
ECCENTRICITY   = .00014549
INCLINATION    = 97.2856
RA_OF_ASC_NODE = 91.3610
ARG_OF_PERICENTER = 94.7752
MEAN_ANOMALY   = 273.9647

EPHEMERIS_TYPE = 0
CLASSIFICATION_TYPE = U
NORAD_CAT_ID   = 67980
ELEMENT_SET_NO = 999
REV_AT_EPOCH   = 510
BSTAR          = -.3986247E-1
MEAN_MOTION_DOT = -.2121097E-1
MEAN_MOTION_DDOT = 0

CCSDS_OMM_VERS = 2.0
CREATION_DATE  = 
ORIGINATOR     = 

OBJECT_NAME    = STARLINK-36874
OBJECT_ID      = 2026-038W
CENTER_NAME    = EARTH
REF_FRAME      = TEME
TIME_SYSTEM    = UTC
MEAN_ELEMENT_THEORY = SGP/SGP4

EPOCH          = 2026-03-21T12:00:00.999648
MEAN_MOTION    = 15.59252575
ECCENTRICITY   = .00017982
INCLINATION    = 97.2849
RA_OF_ASC_NODE = 91.4079
ARG_OF_PERICENTER = 81.7953
MEAN_ANOMALY   = 42.2856

EPHEMERIS_TYPE = 0
CLASSIFICATION_TYPE = U
NORAD_CAT_ID   = 67981
ELEMENT_SET_NO = 999
REV_AT_EPOCH   = 510
BSTAR          = -.33386832E-1
MEAN_MOTION_DOT = -.2306073E-1
MEAN_MOTION_DDOT = 0

