STARLINK-36319          
1 67970U 26038K   26080.50001157 -.00312351  00000+0 -59447-2 0  9990
2 67970  97.2852  91.3126 0000931 107.8800 152.0281 15.49320739  5077
STARLINK-36710          
1 67971U 26038L   26080.50001157 -.02274386  00000+0 -36992-1 0  9997
2 67971  97.2854  91.3616 0001490  74.9089 300.3951 15.56117457  5103
STARLINK-36894          
1 67972U 26038M   26080.50001157 -.02222728  00000+0 -35571-1 0  9993
2 67972  97.2851  91.3706 0001364  98.7218 287.5999 15.56471230  5109
STARLINK-36900          
1 67973U 26038N   26080.50001157 -.00329361  00000+0 -62655-2 0  9997
2 67973  97.2853  91.2451 0001148 105.9900 351.6675 15.49394442  5102
STARLINK-36901          
1 67974U 26038P   26080.50001157 -.02278185  00000+0 -36419-1 0  9995
2 67974  97.2852  91.3695 0001543  76.7958 316.7593 15.56586509  5106
STARLINK-36883          
1 67975U 26038Q   26080.50001157 -.02192277  00000+0 -40070-1 0  9991
2 67975  97.2855  91.3659 0001710  96.7983 278.3175 15.52806500  5107
STARLINK-36880          
1 67976U 26038R   26080.50001157 -.00067230  00000+0 -12443-2 0  9994
2 67976  97.2857  91.2204 0001692  94.9855 302.5049 15.49203953  5101
STARLINK-36904          
1 67977U 26038S   26080.50001157 -.02208627  00000+0 -40642-1 0  9995
2 67977  97.2855  91.3586 0001705 101.1169 263.3665 15.52647327  5107
STARLINK-36364          
1 67978U 26038T   26080.50001157 -.02306766  00000+0 -34057-1 0  9992
2 67978  97.2852  91.4038 0001862  87.3352  24.8245 15.58738925  5106
STARLINK-36359          
1 67979U 26038U   26080.50001157 -.02240154  00000+0 -38456-1 0  9998
2 67979  97.2850  91.3700 0001345  98.2792 287.9129 15.54605342  5100
STARLINK-36882          
1 67980U 26038V   26080.50001157 -.02121097  00000+0 -39862-1 0  9996
2 67980  97.2856  91.3610 0001454  94.7752 273.9647 15.51923131  5102
STARLINK-36874          
1 67981U 26038W   26080.50001157 -.02306073  00000+0 -33387-1 0  9992
2 67981  97.2849  91.4079 0001798  81.7953  42.2856 15.59252575  5109
